STARLINK-31094          
1 58593U 23200E   26068.62192101  .00000613  00000+0  32520-4 0  9996
2 58593  43.0018 168.9694 0001394 266.7261  93.3431 15.26740016123605
TROLL                   
1 62658U 25009BB  26068.22522958  .00013174  00000+0  48220-3 0  9994
2 62658  97.3932 150.7169 0001816  59.1850 300.9568 15.28164315118170
